BEIDOU-3 M17 (C36)      
1 43706U 18093A   26061.46828306 -.00000026  00000+0  00000+0 0  9990
2 43706  54.1714 185.9163 0006994 297.4131  70.7484  1.86228347 49556
BEIDOU-3 M18 (C37)      
1 43707U 18093B   26061.31825568 -.00000028  00000+0  00000+0 0  9994
2 43707  54.1724 185.9133 0006020 341.6195  18.3110  1.86226384 49549
BEIDOU-3 IGSO-1 (C38)   
1 44204U 19023A   26061.84398256 -.00000203  00000+0  00000+0 0  9993
2 44204  58.5514  38.7415 0026009 236.5559 308.3602  1.00271201  6141
BEIDOU-2 G8 (C01)       
1 44231U 19027A   26062.18724043 -.00000263  00000+0  00000+0 0  9998
2 44231   1.8649  74.7267 0009258 269.2896  28.8322  1.00268078 25018
BEIDOU-3 IGSO-2 (C39)   
1 44337U 19035A   26057.68879618 -.00000176  00000+0  00000+0 0  9995
2 44337  55.2338 159.8353 0038734 206.4752 153.7223  1.00247364 24561
BEIDOU-3 M24 (C46)      
1 44542U 19061A   26061.38826417 -.00000027  00000+0  00000+0 0  9998
2 44542  54.3994 186.3291 0008610  21.3330 338.6547  1.86228769 43802
BEIDOU-3 M23 (C45)      
1 44543U 19061B   26061.53276793 -.00000026  00000+0  00000+0 0  9991
2 44543  54.3977 186.2925 0005086  14.2516 354.8811  1.86227187 43816
BEIDOU-3 IGSO-3 (C40)   
1 44709U 19073A   26061.00781069 -.00000149  00000+0  00000+0 0  9993
2 44709  54.9822 282.0561 0040437 189.0682 170.9277  1.00270082 23381
BEIDOU-3 M22 (C44)      
1 44793U 19078A   26059.07985671 -.00000039  00000+0  00000+0 0  9998
2 44793  54.0347 303.6688 0007221  34.9561 325.1493  1.86231871 42613
BEIDOU-3 M21 (C43)      
1 44794U 19078B   26061.36718642 -.00000049  00000+0  00000+0 0  9997
2 44794  54.0055 303.5509 0005915  39.6239 320.4796  1.86227509 42665
BEIDOU-3 M19 (C41)      
1 44864U 19090A   26061.26275238 -.00000008  00000+0  00000+0 0  9992
2 44864  56.4657  66.3234 0020408 291.3317 195.2232  1.86231220 42246
BEIDOU-3 M20 (C42)      
1 44865U 19090B   26061.06620792 -.00000006  00000+0  00000+0 0  9998
2 44865  56.4671  66.3642 0017812 302.8548 141.5369  1.86231168 42229
BEIDOU-3 G2 (C60)       
1 45344U 20017A   26062.17450037 -.00000154  00000+0  00000+0 0  9992
2 45344   2.6517  45.5494 0002707 301.6317 316.6058  1.00271086 22199
BEIDOU-3 G3 (C61)       
1 45807U 20040A   26061.97402785 -.00000369  00000+0  00000+0 0  9994
2 45807   2.1864  67.1119 0004228 315.1868 239.5484  1.00276035 21002
BEIDOU-3 G4 (C62)       
1 56564U 23066A   26062.24547610 -.00000127  00000+0  00000+0 0  9997
2 56564   0.6507 310.7529 0001966 160.9425 297.7203  1.00272140 10336
BEIDOU-3 M28 (C50)      
1 58654U 23207A   26060.37076319 -.00000005  00000+0  00000+0 0  9996
2 58654  55.6573  65.9389 0004876 301.8418  58.1480  1.86229613 14831
BEIDOU-3 M26 (C48)      
1 58655U 23207B   26061.77910262 -.00000015  00000+0  00000+0 0  9997
2 58655  55.6607  65.8776 0005719 287.8858  72.0834  1.86229595 14845
